NORAD_CAT_ID,OBJECT_NAME,OBJECT_TYPE,EPOCH,MEAN_MOTION,ECCENTRICITY,INCLINATION,RA_OF_ASC_NODE,ARG_OF_PERICENTER,MEAN_ANOMALY,BSTAR,MEAN_MOTION_DOT,MEAN_MOTION_DDOT,TLE_LINE0,TLE_LINE1,TLE_LINE2,SEMIMAJOR_AXIS,PERIOD,APOGEE,PERIGEE,DECAYED
52347.0,STARLINK-3826,PAYLOAD,2023-08-14 02:20:24,15.08846931,0.0001273,53.2171,92.6339,94.4082,265.7055,4.4324e-05,4.18e-06,0.0,0 STARLINK-3826,1 52347U 22045S   23226.09750693  .00000418  00000-0  44324-4 0  9992,2 52347  53.2171  92.6339 0001273  94.4082 265.7055 15.08846931 74088,6917.859,95.437,540.605,538.844,0.0
52347.0,STARLINK-3826,PAYLOAD,2023-08-14 18:14:16,15.08840665,0.0001206,53.2179,89.6592,99.7518,260.361,-3.2875e-05,-8.11e-06,0.0,0 STARLINK-3826,1 52347U 22045S   23226.75991307 -.00000811  00000-0 -32875-4 0  9991,2 52347  53.2179  89.6592 0001206  99.7518 260.3610 15.08840665 74188,6917.878,95.438,540.578,538.909,0.0
52347.0,STARLINK-3826,PAYLOAD,2023-08-15 02:11:11,15.08846742,0.000137,53.2162,88.1744,87.3088,272.8061,1.6565e-05,-2.4e-07,0.0,0 STARLINK-3826,1 52347U 22045S   23227.09110719 -.00000024  00000-0  16565-4 0  9992,2 52347  53.2162  88.1744 0001370  87.3088 272.8061 15.08846742 74236,6917.86,95.437,540.673,538.777,0.0
52347.0,STARLINK-3826,PAYLOAD,2023-08-15 16:29:40,15.08840222,0.0001318,53.2172,85.4973,89.1817,270.9326,2.9204e-05,1.77e-06,0.0,0 STARLINK-3826,1 52347U 22045S   23227.68727164  .00000177  00000-0  29204-4 0  9997,2 52347  53.2172  85.4973 0001318  89.1817 270.9326 15.08840222 74323,6917.88,95.438,540.656,538.833,0.0
52347.0,STARLINK-3826,PAYLOAD,2023-08-16 00:26:35,15.08845512,0.0001308,53.2164,84.0108,89.5165,270.5977,8.5414e-05,1.072e-05,0.0,0 STARLINK-3826,1 52347U 22045S   23228.01846607  .00001072  00000-0  85414-4 0  9999,2 52347  53.2164  84.0108 0001308  89.5165 270.5977 15.08845512 74378,6917.864,95.437,540.633,538.824,0.0
52347.0,STARLINK-3826,PAYLOAD,2023-08-16 22:41:59,15.08839352,0.0001213,53.2177,79.8468,87.9485,272.1646,2.4237e-05,9.8e-07,0.0,0 STARLINK-3826,1 52347U 22045S   23228.94583280  .00000098  00000-0  24237-4 0  9999,2 52347  53.2177  79.8468 0001213  87.9485 272.1646 15.08839352 74517,6917.882,95.438,540.587,538.908,0.0
52347.0,STARLINK-3826,PAYLOAD,2023-08-17 20:57:26,15.08710924,0.0002201,53.2177,75.6837,88.4126,271.7118,0.0018755,0.00029581,0.0,0 STARLINK-3826,1 52347U 22045S   23229.87322526  .00029581  00000-0  18755-2 0  9990,2 52347  53.2177  75.6837 0002201  88.4126 271.7118 15.08710924 74654,6918.275,95.446,541.663,538.617,0.0
52347.0,STARLINK-3826,PAYLOAD,2023-08-18 00:08:09,15.08850752,8.17e-05,53.2174,75.0885,74.8501,285.2582,8.0035e-05,9.87e-06,0.0,0 STARLINK-3826,1 52347U 22045S   23230.00566455  .00000987  00000-0  80035-4 0  9999,2 52347  53.2174  75.0885 0000817  74.8501 285.2582 15.08850752 74676,6917.848,95.437,540.278,539.147,0.0
52347.0,STARLINK-3826,PAYLOAD,2023-08-18 16:02:02,15.0883304,0.0001351,53.2177,72.1151,88.8993,271.2154,3.1059e-05,2.06e-06,0.0,0 STARLINK-3826,1 52347U 22045S   23230.66807956  .00000206  00000-0  31059-4 0  9991,2 52347  53.2177  72.1151 0001351  88.8993 271.2154 15.08833040 74779,6917.902,95.438,540.701,538.832,0.0
52347.0,STARLINK-3826,PAYLOAD,2023-08-19 15:52:48,15.08878335,0.0001455,53.2149,67.6556,88.8928,271.2231,-0.00046761,-7.73e-05,0.0,0 STARLINK-3826,1 52347U 22045S   23231.66167660 -.00007730  00000-0 -46761-3 0  9999,2 52347  53.2149  67.6556 0001455  88.8928 271.2231 15.08878335 74928,6917.763,95.435,540.635,538.622,0.0
52347.0,STARLINK-3826,PAYLOAD,2023-08-20 12:32:50,15.08825571,0.0001796,53.215,63.79,80.0863,280.0332,0.00023806,3.501e-05,0.0,0 STARLINK-3826,1 52347U 22045S   23232.52280556  .00003501  00000-0  23806-3 0  9990,2 52347  53.2150  63.7900 0001796  80.0863 280.0332 15.08825571 75059,6917.924,95.438,541.032,538.547,0.0
52347.0,STARLINK-3826,PAYLOAD,2023-08-21 01:15:54,15.08847846,0.0001197,53.2179,61.4098,94.3738,265.7391,6.7526e-05,7.87e-06,0.0,0 STARLINK-3826,1 52347U 22045S   23233.05271211  .00000787  00000-0  67526-4 0  9998,2 52347  53.2179  61.4098 0001197  94.3738 265.7391 15.08847846 75130,6917.856,95.437,540.549,538.893,0.0
52347.0,STARLINK-3826,PAYLOAD,2023-08-21 12:23:37,15.08834702,0.0001285,53.2168,59.3305,73.8656,286.2478,2.1814e-05,5.9e-07,0.0,0 STARLINK-3826,1 52347U 22045S   23233.51640334  .00000059  00000-0  21814-4 0  9997,2 52347  53.2168  59.3305 0001285  73.8656 286.2478 15.08834702 75203,6917.897,95.438,540.651,538.873,0.0
52347.0,STARLINK-3826,PAYLOAD,2023-08-21 18:45:09,15.08842057,0.0001535,53.2168,58.1412,72.4617,287.6543,4.4162e-05,4.15e-06,0.0,0 STARLINK-3826,1 52347U 22045S   23233.78135873  .00000415  00000-0  44162-4 0  9990,2 52347  53.2168  58.1412 0001535  72.4617 287.6543 15.08842057 75243,6917.874,95.437,540.801,538.677,0.0
52347.0,STARLINK-3826,PAYLOAD,2023-08-21 21:55:55,15.08847659,0.0001488,53.2168,57.5457,76.39,283.7258,8.745e-05,1.104e-05,0.0,0 STARLINK-3826,1 52347U 22045S   23233.91383341  .00001104  00000-0  87450-4 0  9993,2 52347  53.2168  57.5457 0001488  76.3900 283.7258 15.08847659 75265,6917.857,95.437,540.751,538.693,0.0
52347.0,STARLINK-3826,PAYLOAD,2023-08-22 23:22:05,15.088418,0.0001398,53.2181,52.7873,73.8095,286.3051,5.6726e-05,6.15e-06,0.0,0 STARLINK-3826,1 52347U 22045S   23234.97367767  .00000615  00000-0  56726-4 0  9992,2 52347  53.2181  52.7873 0001398  73.8095 286.3051 15.08841800 75426,6917.875,95.437,540.707,538.773,0.0
52347.0,STARLINK-3826,PAYLOAD,2023-08-23 12:05:11,15.08828484,0.0001491,53.219,50.4082,75.765,284.3508,7.7465e-05,9.45e-06,0.0,0 STARLINK-3826,1 52347U 22045S   23235.50360646  .00000945  00000-0  77465-4 0  9990,2 52347  53.2190  50.4082 0001491  75.7650 284.3508 15.08828484 75502,6917.916,95.438,540.812,538.749,0.0
52347.0,STARLINK-3826,PAYLOAD,2023-08-23 23:12:52,15.0884482,0.0001269,53.2184,48.3251,92.1519,267.9618,2.1766e-05,5.9e-07,0.0,0 STARLINK-3826,1 52347U 22045S   23235.96727611  .00000059  00000-0  21766-4 0  9998,2 52347  53.2184  48.3251 0001269  92.1519 267.9618 15.08844820 75577,6917.866,95.437,540.609,538.853,0.0
52347.0,STARLINK-3826,PAYLOAD,2023-08-24 23:03:39,15.0883617,0.0001151,53.2183,43.8637,105.1207,254.9913,0.00013848,1.917e-05,0.0,0 STARLINK-3826,1 52347U 22045S   23236.96087606  .00001917  00000-0  13848-3 0  9997,2 52347  53.2183  43.8637 0001151 105.1207 254.9913 15.08836170 75723,6917.892,95.438,540.553,538.961,0.0
52347.0,STARLINK-3826,PAYLOAD,2023-08-25 11:46:45,15.08827618,0.0001278,53.2186,41.4849,98.5405,261.5732,2.5312e-05,1.15e-06,0.0,0 STARLINK-3826,1 52347U 22045S   23237.49080790  .00000115  00000-0  25312-4 0  9992,2 52347  53.2186  41.4849 0001278  98.5405 261.5732 15.08827618 75809,6917.918,95.438,540.667,538.899,0.0
52347.0,STARLINK-3826,PAYLOAD,2023-08-25 21:19:04,15.08838665,0.0001278,53.2195,39.7002,90.0557,270.0582,4.7358e-05,4.66e-06,0.0,0 STARLINK-3826,1 52347U 22045S   23237.88824198  .00000466  00000-0  47358-4 0  9996,2 52347  53.2195  39.7002 0001278  90.0557 270.0582 15.08838665 75863,6917.884,95.438,540.634,538.865,0.0
52347.0,STARLINK-3826,PAYLOAD,2023-08-26 10:02:07,15.08882556,0.0001274,53.2199,37.3213,75.599,284.5144,-0.00056546,-9.286e-05,0.0,0 STARLINK-3826,1 52347U 22045S   23238.41814624 -.00009286  00000-0 -56546-3 0  9998,2 52347  53.2199  37.3213 0001274  75.5990 284.5144 15.08882556 75941,6917.75,95.435,540.497,538.734,0.0
52347.0,STARLINK-3826,PAYLOAD,2023-08-26 14:48:18,15.08837337,0.0002252,53.2198,36.432,60.8128,299.309,0.0001422,1.975e-05,0.0,0 STARLINK-3826,1 52347U 22045S   23238.61688137  .00001975  00000-0  14220-3 0  9996,2 52347  53.2198  36.4320 0002252  60.8128 299.3090 15.08837337 75970,6917.889,95.438,541.311,538.196,0.0
52347.0,STARLINK-3826,PAYLOAD,2023-08-26 17:59:06,15.08809742,0.0002246,53.2198,35.8335,59.3989,300.7225,-0.00011082,-2.05e-05,0.0,0 STARLINK-3826,1 52347U 22045S   23238.74938604 -.00002050  00000-0 -11082-3 0  9997,2 52347  53.2198  35.8335 0002246  59.3989 300.7225 15.08809742 75998,6917.973,95.439,541.392,538.284,0.0
52347.0,STARLINK-3826,PAYLOAD,2023-08-26 19:34:27,15.08837071,0.0001356,53.2198,35.5376,88.384,271.7308,0.00012756,1.743e-05,0.0,0 STARLINK-3826,1 52347U 22045S   23238.81560121  .00001743  00000-0  12756-3 0  9995,2 52347  53.2198  35.5376 0001356  88.3840 271.7308 15.08837071 76007,6917.889,95.438,540.692,538.816,0.0
52347.0,STARLINK-3826,PAYLOAD,2023-08-26 22:45:13,15.08841621,0.0001358,53.219,34.9437,85.9773,274.1374,0.00017067,2.429e-05,0.0,0 STARLINK-3826,1 52347U 22045S   23238.94807816  .00002429  00000-0  17067-3 0  9996,2 52347  53.2190  34.9437 0001358  85.9773 274.1374 15.08841621 76028,6917.875,95.437,540.68,538.801,0.0
52347.0,STARLINK-3826,PAYLOAD,2023-08-27 17:49:52,15.0883883,0.0001565,53.2199,31.377,69.9252,290.1909,6.0263e-05,6.71e-06,0.0,0 STARLINK-3826,1 52347U 22045S   23239.74296609  .00000671  00000-0  60263-4 0  9991,2 52347  53.2199  31.3770 0001565  69.9252 290.1909 15.08838830 76145,6917.884,95.438,540.832,538.666,0.0
52347.0,STARLINK-3826,PAYLOAD,2023-08-28 19:16:02,15.08844905,0.0001365,53.218,26.618,87.2855,272.8294,2.9267e-05,1.78e-06,0.0,0 STARLINK-3826,1 52347U 22045S   23240.80280525  .00000178  00000-0  29267-4 0  9991,2 52347  53.2180  26.6180 0001365  87.2855 272.8294 15.08844905 76309,6917.865,95.437,540.675,538.786,0.0
52347.0,STARLINK-3826,PAYLOAD,2023-08-29 19:06:48,15.0884833,0.0001324,53.2187,22.1582,86.1693,273.9451,7.0608e-05,8.36e-06,0.0,0 STARLINK-3826,1 52347U 22045S   23241.79639964  .00000836  00000-0  70608-4 0  9991,2 52347  53.2187  22.1582 0001324  86.1693 273.9451 15.08848330 76455,6917.855,95.437,540.636,538.804,0.0
52347.0,STARLINK-3826,PAYLOAD,2023-08-30 15:46:50,15.08842812,0.0001332,53.2198,18.293,92.5959,267.5185,2.4217e-05,9.8e-07,0.0,0 STARLINK-3826,1 52347U 22045S   23242.65752475  .00000098  00000-0  24217-4 0  9995,2 52347  53.2198  18.2930 0001332  92.5959 267.5185 15.08842812 76581,6917.872,95.437,540.658,538.815,0.0
